{
    "links": {
        "self": "http://www.neowsapp.com/rest/v1/neo/54075578?api_key=iIulBulltgU6a56xZRHN4H3l9WmuAYTsLGpBGhQ2"
    },
    "id": "54075578",
    "neo_reference_id": "54075578",
    "name": "(2020 UJ2)",
    "designation": "2020 UJ2",
    "nasa_jpl_url": "http://ssd.jpl.nasa.gov/sbdb.cgi?sstr=54075578",
    "absolute_magnitude_h": 23.829,
    "estimated_diameter": {
        "kilometers": {
            "estimated_diameter_min": 0.0455779698,
            "estimated_diameter_max": 0.1019154388
        },
        "meters": {
            "estimated_diameter_min": 45.5779698321,
            "estimated_diameter_max": 101.915438821
        },
        "miles": {
            "estimated_diameter_min": 0.0283208287,
            "estimated_diameter_max": 0.0633272981
        },
        "feet": {
            "estimated_diameter_min": 149.534026544,
            "estimated_diameter_max": 334.3682483015
        }
    },
    "is_potentially_hazardous_asteroid": false,
    "close_approach_data": [
        {
            "close_approach_date": "2020-10-24",
            "close_approach_date_full": "2020-Oct-24 15:28",
            "epoch_date_close_approach": 1603553280000,
            "relative_velocity": {
                "kilometers_per_second": "8.2356812484",
                "kilometers_per_hour": "29648.4524942117",
                "miles_per_hour": "18422.3953845284"
            },
            "miss_distance": {
                "astronomical": "0.1461648124",
                "lunar": "56.8581120236",
                "kilometers": "21865944.603989588",
                "miles": "13586867.9454807944"
            },
            "orbiting_body": "Earth"
        }
    ],
    "orbital_data": {
        "orbit_id": "5",
        "orbit_determination_date": "2020-11-19 05:21:33",
        "first_observation_date": "2020-10-17",
        "last_observation_date": "2020-11-18",
        "data_arc_in_days": 32,
        "observations_used": 22,
        "orbit_uncertainty": "8",
        "minimum_orbit_intersection": ".0999803",
        "jupiter_tisserand_invariant": "3.173",
        "epoch_osculation": "2459142.5",
        "eccentricity": ".5806316206696486",
        "semi_major_axis": "2.559554428966623",
        "inclination": "3.047307347415638",
        "ascending_node_longitude": "133.8145203729966",
        "orbital_period": "1495.701677596287",
        "perihelion_distance": "1.073396192683556",
        "perihelion_argument": "278.0487068310661",
        "aphelion_distance": "4.045712665249691",
        "perihelion_time": "2459160.715525773007",
        "mean_anomaly": "355.615710421064",
        "mean_motion": ".2406897079760912",
        "equinox": "J2000",
        "orbit_class": {
            "orbit_class_type": "AMO",
            "orbit_class_description": "Near-Earth asteroid orbits similar to that of 1221 Amor",
            "orbit_class_range": "1.017 AU < q (perihelion) < 1.3 AU"
        }
    },
    "is_sentry_object": false
}